41925,IRIDIUM 112,2017,100.4,860.0,+,86.39,Active,1,LEO,USA,USA,Commercial/Government,Communications,Falcon,1 41925U 17003J   25095.75470162  .00000137  00000+0  41996-4 0  9998,2 41925  86.3908 271.0573 0002227  89.7970 270.3480 14.34219649430571,14.34219649,0.0002227,LEO
42803,IRIDIUM 113,2017,100.4,860.0,+,86.4,Active,1,LEO,USA,USA,Commercial/Government,Communications,Falcon,1 42803U 17039A   25095.65221370  .00000403  00000+0  13674-3 0  9994,2 42803  86.3993 145.0722 0002579  90.6005 269.5487 14.34216915408471,14.34216915,0.0002579,LEO
42804,IRIDIUM 123,2017,100.4,860.0,+,86.4,Active,1,LEO,USA,USA,Commercial/Government,Communications,Falcon,1 42804U 17039B   25095.76345931  .00000038  00000+0  63662-5 0  9995,2 42804  86.4040 176.4507 0001964  95.8251 264.3168 14.34218275407257,14.34218275,0.0001964,LEO
42805,IRIDIUM 120,2017,100.4,860.0,+,86.4,Active,1,LEO,USA,USA,Commercial/Government,Communications,Falcon,1 42805U 17039C   25095.64585705  .00000787  00000+0  27402-3 0  9999,2 42805  86.3978 144.9138 0002062 102.9843 257.1583 14.34213082408460,14.34213082,0.0002062,LEO
42806,IRIDIUM 115,2017,99.77,860.0,+,86.45,Active,1,LEO,USA,USA,Commercial/Government,Communications,Falcon,1 42806U 17039D   25096.19563994  .00000806  00000+0  23352-3 0  9999,2 42806  86.4514 144.7531 0001642  85.6930 274.4458 14.43281747411235,14.43281747,0.0001642,LEO
42807,IRIDIUM 118,2017,100.4,860.0,+,86.4,Active,1,LEO,USA,USA,Commercial/Government,Communications,Falcon,1 42807U 17039E   25095.72540385  .00000006  00000+0 -50402-5 0  9998,2 42807  86.4042 176.4664 0002174  95.0333 265.1110 14.34217276407248,14.34217276,0.0002174,LEO
42808,IRIDIUM 117,2017,100.4,860.0,+,86.4,Active,1,LEO,USA,USA,Commercial/Government,Communications,Falcon,1 42808U 17039F   25095.74443095  .00000180  00000+0  57373-4 0  9996,2 42808  86.4038 176.4205 0001935  90.2153 269.9265 14.34218036407277,14.34218036,0.0001935,LEO
